contact,bankID,email,Client identification:,Bank_IDENTIFIER:,client name,Address,Last Activity,Account Type,Zip Code,Branch,account open,account num:,country,client identifier,account status,current balance
+1-699-380-7608,41319277,user9277@sample.org,41319277,41319277,Katie Johnson,251 First Ave,2024-06-15,Loan,74986,Branch 2,2021-10-24,41319277,Germany,41319277,inactive,5538.18
+1-508-236-3997,97117756,user7756@test.net,97117756,97117756,Emily Brown,576 Main St,2024-08-24,Checking,11279,Branch 20,2021-06-22,97117756,USA,97117756,inactive,5036.29
+1-673-303-1857,87845448,user5448@test.net,87845448,87845448,Katie Brown,367 Broadway,2024-09-18,Loan,13163,Branch 20,2020-08-27,87845448,Australia,87845448,active,1946.69
+1-238-525-4926,63202857,user2857@example.com,63202857,63202857,Katie Doe,634 First Ave,2024-05-13,Loan,42946,Branch 7,2023-05-25,63202857,UK,63202857,active,8589.58
+1-600-400-8589,57151264,user1264@example.com,57151264,57151264,Jane Brown,613 First Ave,2025-03-03,Checking,24531,Branch 11,2020-04-21,57151264,UK,57151264,inactive,6772.64
+1-239-384-9584,37329462,user9462@test.net,37329462,37329462,Katie Davis,149 Main St,2024-07-24,Savings,14439,Branch 6,2024-08-08,37329462,Canada,37329462,active,8380.7
+1-690-161-5812,13270011,user0011@sample.org,13270011,13270011,Emily Brown,305 Maple Drive,2024-05-06,Credit,32712,Branch 12,2024-01-05,13270011,Canada,13270011,active,8589.06
+1-343-643-1734,79211938,user1938@example.com,79211938,79211938,Katie Doe,594 Broadway,2025-01-15,Credit,36279,Branch 3,2023-04-09,79211938,Germany,79211938,active,7486.07
+1-477-784-9861,01712213,user2213@example.com,01712213,01712213,Emily Davis,402 First Ave,2024-09-03,Checking,38732,Branch 5,2022-03-07,01712213,Australia,01712213,active,4397.71
+1-824-211-3308,11069030,user9030@test.net,11069030,11069030,Emily Smith,120 Broadway,2024-04-21,Savings,60674,Branch 1,2023-09-17,11069030,Germany,11069030,inactive,6109.36
+1-835-398-5425,16366489,user6489@sample.org,16366489,16366489,Jane Smith,244 Main St,2024-11-03,Loan,30989,Branch 20,2022-09-14,16366489,Canada,16366489,active,1612.05
+1-653-532-4514,68357779,user7779@example.com,68357779,68357779,Alex Johnson,966 Main St,2024-12-19,Checking,83596,Branch 17,2024-02-13,68357779,USA,68357779,inactive,6739.72
+1-400-750-8460,48868880,user8880@sample.org,48868880,48868880,Chris Brown,640 First Ave,2024-10-01,Credit,59573,Branch 15,2021-05-19,48868880,Canada,48868880,active,1800.74
+1-700-890-4924,55247040,user7040@test.net,55247040,55247040,Emily Brown,859 Maple Drive,2024-07-08,Checking,47541,Branch 12,2021-09-27,55247040,Canada,55247040,inactive,6942.56
+1-722-119-5164,30868992,user8992@test.net,30868992,30868992,Emily Johnson,430 Broadway,2024-04-29,Credit,20321,Branch 11,2022-05-27,30868992,Canada,30868992,inactive,2303.69
+1-998-559-1667,70362091,user2091@sample.org,70362091,70362091,John Johnson,166 Broadway,2024-12-13,Loan,19002,Branch 10,2023-08-30,70362091,USA,70362091,active,1184.34
+1-316-349-1144,18292423,user2423@example.com,18292423,18292423,Chris Johnson,263 Maple Drive,2025-02-05,Checking,61394,Branch 13,2024-06-08,18292423,Canada,18292423,active,1661.19
+1-403-564-8042,66882524,user2524@sample.org,66882524,66882524,John Brown,720 First Ave,2025-01-02,Credit,89160,Branch 16,2025-02-09,66882524,Canada,66882524,inactive,29.9
+1-211-376-2777,69518137,user8137@test.net,69518137,69518137,Katie Davis,383 Maple Drive,2024-06-09,Loan,26502,Branch 2,2023-01-31,69518137,Australia,69518137,active,7190.21
+1-800-200-9079,42167022,user7022@test.net,42167022,42167022,Jane Johnson,413 Broadway,2024-11-02,Credit,74323,Branch 1,2025-02-12,42167022,USA,42167022,inactive,7326.69
+1-809-678-8666,71326103,user6103@example.com,71326103,71326103,John Davis,201 Main St,2024-11-30,Checking,71799,Branch 10,2024-03-01,71326103,Canada,71326103,active,5154.18
+1-221-904-6435,53353509,user3509@test.net,53353509,53353509,Katie Smith,228 Main St,2024-09-20,Checking,95452,Branch 16,2022-08-19,53353509,Canada,53353509,inactive,1622.01
+1-666-693-8336,65922492,user2492@example.com,65922492,65922492,John Johnson,856 Broadway,2025-01-20,Credit,16480,Branch 12,2024-02-27,65922492,Canada,65922492,inactive,844.71
+1-421-202-1335,63852671,user2671@example.com,63852671,63852671,Katie Johnson,127 Maple Drive,2024-12-21,Checking,41976,Branch 18,2022-10-11,63852671,Germany,63852671,inactive,201.1
+1-716-153-3839,77088818,user8818@test.net,77088818,77088818,Emily Johnson,546 First Ave,2025-02-03,Credit,82329,Branch 15,2022-02-04,77088818,Germany,77088818,active,1665.82
+1-699-861-2140,01871979,user1979@test.net,01871979,01871979,Jane Davis,632 Broadway,2024-09-13,Savings,87934,Branch 2,2024-01-12,01871979,Germany,01871979,inactive,8909.65
+1-433-532-3721,84307480,user7480@sample.org,84307480,84307480,Jane Brown,745 First Ave,2024-10-07,Checking,40522,Branch 4,2023-04-11,84307480,Germany,84307480,inactive,2422.95
+1-386-425-7020,07658204,user8204@example.com,07658204,07658204,Katie Davis,604 Main St,2024-11-27,Credit,98843,Branch 5,2024-10-06,07658204,Australia,07658204,inactive,3549.17
+1-697-632-5625,91500487,user0487@example.com,91500487,91500487,John Doe,759 Maple Drive,2024-11-05,Checking,19310,Branch 17,2023-07-11,91500487,USA,91500487,inactive,1062.4
+1-273-677-1151,65648350,user8350@example.com,65648350,65648350,Emily Doe,633 Maple Drive,2024-12-26,Loan,97841,Branch 1,2022-11-06,65648350,Canada,65648350,active,2231.39
+1-455-252-3103,78880943,user0943@test.net,78880943,78880943,Alex Davis,239 Main St,2024-09-22,Checking,39356,Branch 18,2020-07-13,78880943,Australia,78880943,inactive,5197.05
+1-337-175-2914,90869318,user9318@example.com,90869318,90869318,John Johnson,633 Broadway,2025-02-28,Loan,96543,Branch 15,2020-09-17,90869318,USA,90869318,active,6081.45
+1-425-944-9304,79937526,user7526@sample.org,79937526,79937526,Emily Brown,568 Maple Drive,2024-10-28,Checking,66016,Branch 2,2022-01-15,79937526,USA,79937526,inactive,2461.07
+1-720-536-2114,43958035,user8035@example.com,43958035,43958035,Emily Davis,730 Broadway,2025-03-04,Credit,95969,Branch 7,2024-03-15,43958035,UK,43958035,active,586.74
+1-768-514-8100,34236466,user6466@test.net,34236466,34236466,Jane Doe,356 Broadway,2024-06-21,Credit,43839,Branch 9,2024-01-29,34236466,Canada,34236466,active,3916.42
+1-230-583-1237,04441190,user1190@sample.org,04441190,04441190,Chris Doe,278 First Ave,2024-11-03,Credit,86273,Branch 4,2024-04-13,04441190,USA,04441190,active,2349.69
+1-830-913-6054,64198300,user8300@example.com,64198300,64198300,Chris Johnson,632 Main St,2025-02-25,Checking,12708,Branch 4,2021-10-19,64198300,Australia,64198300,inactive,2203.34
+1-281-807-6273,10824951,user4951@test.net,10824951,10824951,Katie Smith,604 First Ave,2025-01-09,Savings,41967,Branch 13,2021-01-16,10824951,USA,10824951,active,9599.03
+1-707-263-5141,11336848,user6848@sample.org,11336848,11336848,Jane Brown,244 Maple Drive,2025-01-17,Credit,66599,Branch 7,2025-03-06,11336848,USA,11336848,inactive,6166.84
+1-290-520-6580,55642923,user2923@example.com,55642923,55642923,Chris Brown,614 Main St,2024-09-11,Savings,52909,Branch 18,2023-12-04,55642923,Germany,55642923,inactive,5573.22
+1-959-619-5192,46496888,user6888@example.com,46496888,46496888,Katie Doe,222 Maple Drive,2024-09-22,Savings,69043,Branch 14,2020-12-08,46496888,UK,46496888,inactive,4163.59
+1-558-814-4418,48985048,user5048@example.com,48985048,48985048,Katie Brown,460 Main St,2024-12-08,Credit,19880,Branch 3,2023-11-25,48985048,USA,48985048,inactive,4295.15
+1-943-499-9332,75524301,user4301@sample.org,75524301,75524301,Jane Smith,197 Maple Drive,2024-12-01,Credit,65500,Branch 2,2023-09-18,75524301,USA,75524301,inactive,5413.64
+1-876-175-1635,94116287,user6287@sample.org,94116287,94116287,Alex Smith,589 First Ave,2024-03-26,Credit,79165,Branch 3,2022-12-15,94116287,Australia,94116287,inactive,6967.33
+1-557-304-6064,99201132,user1132@example.com,99201132,99201132,Jane Johnson,384 Maple Drive,2024-11-30,Loan,78074,Branch 1,2020-05-31,99201132,Germany,99201132,inactive,7024.44
+1-209-472-4637,30544925,user4925@test.net,30544925,30544925,Katie Smith,966 First Ave,2024-08-22,Savings,88281,Branch 17,2023-09-02,30544925,Australia,30544925,inactive,1725.22
+1-500-608-5684,51537055,user7055@sample.org,51537055,51537055,Jane Davis,133 Broadway,2025-02-25,Savings,74144,Branch 7,2024-03-29,51537055,Australia,51537055,active,5006.13
+1-783-287-4475,99751052,user1052@test.net,99751052,99751052,Emily Davis,760 Main St,2025-01-10,Checking,29358,Branch 2,2024-12-28,99751052,Australia,99751052,active,4125.46
+1-242-803-9842,77089313,user9313@test.net,77089313,77089313,Alex Smith,528 Main St,2025-02-10,Loan,87317,Branch 4,2022-04-03,77089313,UK,77089313,active,8706.56
+1-267-887-1822,76019313,user9313@test.net,76019313,76019313,Alex Smith,466 Maple Drive,2024-10-04,Loan,95267,Branch 12,2022-04-16,76019313,Canada,76019313,active,6317.88
+1-682-842-4806,97156427,user6427@test.net,97156427,97156427,Jane Smith,295 Maple Drive,2024-10-19,Checking,39036,Branch 7,2022-11-10,97156427,Canada,97156427,active,5329.72
+1-476-462-7654,80194992,user4992@test.net,80194992,80194992,John Smith,538 First Ave,2024-09-04,Loan,19446,Branch 11,2022-09-29,80194992,Canada,80194992,inactive,1162.79
+1-566-173-4676,81685240,user5240@test.net,81685240,81685240,Chris Smith,843 Main St,2024-05-22,Loan,88749,Branch 5,2025-02-09,81685240,Germany,81685240,inactive,6060.32
+1-803-782-1432,76537492,user7492@test.net,76537492,76537492,Emily Brown,785 Maple Drive,2024-05-09,Credit,13937,Branch 15,2023-11-05,76537492,Australia,76537492,inactive,1180.87
+1-680-783-3760,60565215,user5215@example.com,60565215,60565215,Emily Doe,673 Main St,2024-09-21,Loan,19880,Branch 18,2024-09-22,60565215,Canada,60565215,inactive,3378.69
+1-597-565-5923,69490905,user0905@test.net,69490905,69490905,Emily Davis,218 Broadway,2024-06-29,Loan,15110,Branch 1,2024-09-28,69490905,Australia,69490905,inactive,1436.99
+1-879-959-6281,74955066,user5066@test.net,74955066,74955066,Alex Doe,126 Main St,2025-02-25,Savings,20919,Branch 2,2021-01-25,74955066,Australia,74955066,active,6923.82
+1-455-849-4688,63825825,user5825@test.net,63825825,63825825,Katie Doe,315 Main St,2025-01-31,Loan,81066,Branch 11,2020-05-21,63825825,Canada,63825825,active,2070.46
+1-829-484-3159,42028532,user8532@test.net,42028532,42028532,Emily Johnson,984 Main St,2025-01-26,Checking,55700,Branch 14,2025-02-28,42028532,Australia,42028532,inactive,3924.68
+1-524-844-2281,92809460,user9460@example.com,92809460,92809460,Emily Brown,818 Maple Drive,2024-08-12,Credit,56208,Branch 2,2024-12-31,92809460,UK,92809460,active,8957.79
+1-651-992-1480,48214835,user4835@example.com,48214835,48214835,John Smith,846 Main St,2024-12-04,Credit,45592,Branch 17,2025-02-15,48214835,Canada,48214835,inactive,2051.12
+1-869-831-3986,65254106,user4106@example.com,65254106,65254106,Alex Johnson,787 First Ave,2024-11-08,Loan,11478,Branch 18,2020-06-15,65254106,USA,65254106,inactive,5082.97
+1-692-200-6199,26573829,user3829@example.com,26573829,26573829,Chris Johnson,553 Maple Drive,2024-12-17,Savings,59135,Branch 14,2024-03-25,26573829,Australia,26573829,active,4198.52
+1-390-993-3278,58241021,user1021@sample.org,58241021,58241021,Chris Brown,446 First Ave,2024-09-19,Savings,73555,Branch 7,2021-12-28,58241021,Germany,58241021,active,191.06
+1-663-340-8892,83406616,user6616@test.net,83406616,83406616,Jane Davis,403 First Ave,2024-07-25,Loan,44003,Branch 18,2024-02-01,83406616,UK,83406616,inactive,7929.65
+1-918-265-3283,30023900,user3900@test.net,30023900,30023900,Alex Smith,138 First Ave,2024-12-01,Savings,47548,Branch 10,2021-07-03,30023900,Australia,30023900,active,699.77
+1-623-304-9650,38699688,user9688@sample.org,38699688,38699688,John Davis,111 Broadway,2024-03-22,Loan,77635,Branch 3,2022-07-08,38699688,Canada,38699688,inactive,4747.81
+1-632-214-8664,16812792,user2792@example.com,16812792,16812792,John Smith,921 Maple Drive,2024-05-12,Savings,73707,Branch 20,2024-07-21,16812792,Canada,16812792,active,5611.18
+1-312-489-2036,48248427,user8427@test.net,48248427,48248427,John Johnson,266 Main St,2024-04-05,Loan,12994,Branch 13,2023-04-09,48248427,Germany,48248427,inactive,6287.98
+1-397-874-9986,27163865,user3865@test.net,27163865,27163865,Jane Smith,917 Broadway,2024-08-25,Credit,38905,Branch 5,2024-09-25,27163865,USA,27163865,inactive,6889.43
+1-394-447-9610,68118698,user8698@example.com,68118698,68118698,Jane Johnson,127 First Ave,2024-05-08,Credit,82780,Branch 18,2023-02-18,68118698,UK,68118698,active,2540.19
+1-306-905-9064,07666480,user6480@sample.org,07666480,07666480,John Brown,983 Main St,2025-02-05,Savings,21250,Branch 10,2024-03-25,07666480,Canada,07666480,active,109.69
+1-719-197-1477,09873998,user3998@test.net,09873998,09873998,Emily Brown,668 Main St,2024-04-26,Checking,75147,Branch 4,2024-07-20,09873998,Australia,09873998,inactive,7237.2
+1-996-467-3512,80444491,user4491@test.net,80444491,80444491,Emily Davis,632 First Ave,2024-11-23,Loan,22780,Branch 20,2023-07-14,80444491,Germany,80444491,active,5361.21
+1-505-759-6254,65212311,user2311@example.com,65212311,65212311,Emily Smith,670 Broadway,2024-08-02,Credit,73394,Branch 9,2020-06-25,65212311,USA,65212311,inactive,8362.82
+1-212-292-6145,76044137,user4137@sample.org,76044137,76044137,Chris Davis,700 Maple Drive,2024-05-20,Loan,45087,Branch 9,2023-04-19,76044137,Australia,76044137,active,8215.67
+1-664-758-9768,79434404,user4404@test.net,79434404,79434404,Emily Brown,117 First Ave,2025-02-11,Checking,73381,Branch 15,2023-06-04,79434404,UK,79434404,active,8434.83
+1-416-475-6090,02123601,user3601@example.com,02123601,02123601,Alex Johnson,529 Broadway,2024-09-18,Checking,48125,Branch 10,2022-08-13,02123601,Canada,02123601,inactive,4856.1
+1-382-173-2908,93188973,user8973@test.net,93188973,93188973,Jane Doe,157 Maple Drive,2024-08-12,Checking,88777,Branch 13,2021-09-21,93188973,Canada,93188973,inactive,3342.95
+1-921-995-4278,23506201,user6201@test.net,23506201,23506201,Chris Doe,337 First Ave,2024-05-12,Savings,12920,Branch 20,2021-06-05,23506201,Germany,23506201,active,7917.67
+1-867-898-6539,23393424,user3424@test.net,23393424,23393424,Emily Doe,325 Broadway,2024-03-12,Credit,72154,Branch 1,2021-12-12,23393424,USA,23393424,active,4518.43
+1-684-733-7470,62548881,user8881@test.net,62548881,62548881,Jane Smith,271 Main St,2024-05-29,Loan,90280,Branch 12,2024-03-13,62548881,Germany,62548881,active,1842.59
+1-293-417-5289,27879405,user9405@test.net,27879405,27879405,John Brown,475 Maple Drive,2024-05-23,Credit,33931,Branch 16,2024-05-29,27879405,Australia,27879405,active,8551.19
+1-503-123-1990,82216001,user6001@test.net,82216001,82216001,Katie Johnson,336 First Ave,2024-04-04,Checking,41944,Branch 19,2021-07-27,82216001,Germany,82216001,active,8826.77
+1-536-568-8989,75861373,user1373@sample.org,75861373,75861373,Emily Brown,303 Maple Drive,2024-09-13,Savings,28685,Branch 6,2024-11-29,75861373,USA,75861373,inactive,4668.43
+1-819-661-5962,15688510,user8510@test.net,15688510,15688510,John Doe,530 Broadway,2024-12-08,Checking,78932,Branch 8,2023-03-31,15688510,Germany,15688510,active,766.24
+1-425-184-6586,10593981,user3981@test.net,10593981,10593981,John Smith,743 First Ave,2024-07-10,Savings,58501,Branch 6,2021-03-06,10593981,USA,10593981,active,3884.38
+1-375-266-8950,98011560,user1560@test.net,98011560,98011560,Emily Brown,231 Broadway,2024-08-21,Loan,36591,Branch 3,2020-05-15,98011560,Germany,98011560,inactive,8037.34
+1-927-736-2381,60777324,user7324@example.com,60777324,60777324,Emily Doe,619 Main St,2024-12-31,Loan,40763,Branch 18,2020-10-06,60777324,USA,60777324,active,9018.72
+1-312-113-8639,74515142,user5142@sample.org,74515142,74515142,Katie Johnson,451 First Ave,2024-08-22,Credit,73374,Branch 7,2023-03-20,74515142,Germany,74515142,inactive,2042.69
+1-512-545-6750,52853455,user3455@test.net,52853455,52853455,Jane Doe,584 First Ave,2025-01-29,Loan,42563,Branch 19,2022-10-27,52853455,Germany,52853455,active,679.07
+1-549-141-7649,49441325,user1325@test.net,49441325,49441325,Chris Brown,314 Broadway,2024-11-08,Loan,61982,Branch 11,2022-12-07,49441325,USA,49441325,active,8774.73
+1-578-881-4877,32123315,user3315@example.com,32123315,32123315,Alex Smith,908 First Ave,2024-12-18,Loan,29190,Branch 16,2022-07-04,32123315,Australia,32123315,inactive,3900.16
+1-209-283-1110,63560676,user0676@sample.org,63560676,63560676,Alex Johnson,433 Maple Drive,2024-12-02,Loan,36056,Branch 14,2022-09-22,63560676,UK,63560676,active,5422.19
+1-226-533-9803,12154021,user4021@test.net,12154021,12154021,John Doe,462 First Ave,2024-03-20,Credit,13238,Branch 18,2024-02-04,12154021,UK,12154021,active,9680.98
+1-966-514-6685,08307506,user7506@sample.org,08307506,08307506,Emily Johnson,343 Broadway,2025-03-01,Savings,53358,Branch 12,2020-08-20,08307506,UK,08307506,inactive,674.98
+1-867-266-4091,89226243,user6243@example.com,89226243,89226243,Emily Davis,471 Main St,2024-12-07,Checking,68287,Branch 7,2021-02-09,89226243,Canada,89226243,inactive,6486.7
+1-360-151-5968,15986973,user6973@sample.org,15986973,15986973,Chris Davis,546 First Ave,2024-07-02,Credit,62598,Branch 17,2025-02-04,15986973,Australia,15986973,active,750.31
+1-339-953-1363,48617578,user7578@sample.org,48617578,48617578,John Doe,811 First Ave,2024-09-03,Checking,29783,Branch 20,2024-08-04,48617578,UK,48617578,inactive,3760.93
+1-857-395-3616,15738247,user8247@sample.org,15738247,15738247,Emily Doe,173 Broadway,2024-05-17,Credit,16575,Branch 8,2023-05-25,15738247,Canada,15738247,inactive,8040.11
