Bank-NO,email,client name,account open,Status,accountidentification,current balance,mobile,recent activity,Country,office,LedgerNO,Zip Code,street,record no.,account_type,Account_NO
54843348,user3348@sample.org,John Davis,2023-11-07,active,54843348,2255.88,+1-282-373-1256,2024-04-14,Australia,Branch 4,54843348,20091,610 First Ave,54843348,Credit,54843348
72776759,user6759@example.com,Chris Brown,2021-10-30,active,72776759,202.94,+1-965-838-3238,2024-07-06,Canada,Branch 15,72776759,29189,257 Main St,72776759,Savings,72776759
12117791,user7791@sample.org,Jane Davis,2021-06-08,active,12117791,2380.62,+1-308-704-6907,2024-06-29,Australia,Branch 13,12117791,94838,938 Maple Drive,12117791,Checking,12117791
41697138,user7138@test.net,Alex Doe,2020-07-20,active,41697138,7002.19,+1-541-274-6491,2024-07-29,USA,Branch 1,41697138,82370,525 Broadway,41697138,Savings,41697138
45015389,user5389@example.com,Jane Davis,2024-01-30,active,45015389,9116.78,+1-334-924-8849,2024-11-21,Germany,Branch 1,45015389,59998,735 Broadway,45015389,Checking,45015389
65967719,user7719@sample.org,Jane Doe,2023-11-07,inactive,65967719,944.2,+1-279-970-4578,2025-01-06,USA,Branch 20,65967719,90071,641 Maple Drive,65967719,Loan,65967719
86600714,user0714@test.net,Katie Davis,2022-03-02,inactive,86600714,5537.06,+1-612-436-6183,2024-12-21,Canada,Branch 10,86600714,55187,673 Main St,86600714,Savings,86600714
32350577,user0577@example.com,John Doe,2024-04-18,inactive,32350577,6958.36,+1-530-251-6755,2024-07-07,UK,Branch 15,32350577,44977,563 Maple Drive,32350577,Credit,32350577
68659111,user9111@example.com,Alex Brown,2025-02-01,active,68659111,2771.04,+1-301-632-9769,2024-08-24,Australia,Branch 5,68659111,47340,106 Maple Drive,68659111,Credit,68659111
94626683,user6683@sample.org,Katie Doe,2020-05-01,active,94626683,5703.27,+1-339-685-9571,2024-09-04,USA,Branch 19,94626683,33374,513 Broadway,94626683,Loan,94626683
16819141,user9141@test.net,Chris Brown,2025-03-08,inactive,16819141,7155.33,+1-263-890-1120,2024-05-14,UK,Branch 7,16819141,56164,423 Main St,16819141,Savings,16819141
49778298,user8298@example.com,John Smith,2020-07-10,active,49778298,8378.82,+1-930-406-5367,2024-05-23,USA,Branch 5,49778298,39520,536 Maple Drive,49778298,Loan,49778298
90552766,user2766@test.net,Jane Brown,2024-04-03,inactive,90552766,4530.47,+1-546-665-1607,2025-02-15,USA,Branch 11,90552766,80394,138 First Ave,90552766,Loan,90552766
67460292,user0292@test.net,Jane Doe,2022-01-21,active,67460292,7481.09,+1-426-614-8772,2024-06-23,Australia,Branch 11,67460292,99752,315 Main St,67460292,Checking,67460292
21438053,user8053@test.net,John Brown,2025-03-06,active,21438053,3024.81,+1-442-540-1340,2024-09-01,USA,Branch 7,21438053,60354,420 First Ave,21438053,Credit,21438053
34109451,user9451@sample.org,Chris Doe,2020-10-29,inactive,34109451,2138.34,+1-476-739-2399,2024-10-24,UK,Branch 10,34109451,33082,613 First Ave,34109451,Loan,34109451
41768311,user8311@example.com,Chris Smith,2021-03-21,inactive,41768311,1881.26,+1-645-919-6743,2024-05-31,Australia,Branch 12,41768311,75752,896 Maple Drive,41768311,Checking,41768311
54555602,user5602@example.com,Alex Davis,2020-05-25,inactive,54555602,3595.14,+1-761-644-6678,2025-01-30,USA,Branch 14,54555602,95067,854 First Ave,54555602,Loan,54555602
41072793,user2793@example.com,Alex Johnson,2025-01-07,active,41072793,368.44,+1-877-663-9571,2025-01-26,Germany,Branch 19,41072793,53362,615 Main St,41072793,Loan,41072793
45783644,user3644@example.com,Emily Johnson,2020-08-18,active,45783644,2837.09,+1-928-940-7423,2024-12-06,Canada,Branch 19,45783644,23797,820 Maple Drive,45783644,Loan,45783644
97840213,user0213@sample.org,Alex Johnson,2022-09-09,inactive,97840213,6525.71,+1-968-325-1753,2024-10-30,USA,Branch 3,97840213,49112,865 Broadway,97840213,Credit,97840213
21137321,user7321@example.com,Alex Smith,2020-11-18,inactive,21137321,6482.71,+1-985-469-5629,2024-04-08,UK,Branch 13,21137321,71958,398 First Ave,21137321,Savings,21137321
40628980,user8980@example.com,Jane Smith,2022-06-12,active,40628980,744.8,+1-841-651-2901,2024-10-10,USA,Branch 1,40628980,82406,653 Main St,40628980,Savings,40628980
29201034,user1034@example.com,Alex Smith,2022-09-28,active,29201034,2881.28,+1-563-505-7842,2024-07-22,Australia,Branch 7,29201034,93641,776 Broadway,29201034,Checking,29201034
24127608,user7608@test.net,Emily Davis,2020-08-10,active,24127608,5699.88,+1-645-171-9616,2024-11-27,Germany,Branch 17,24127608,28840,988 Main St,24127608,Credit,24127608
51648364,user8364@sample.org,Chris Davis,2024-07-17,active,51648364,3192.34,+1-613-829-2727,2024-03-18,UK,Branch 3,51648364,13275,665 First Ave,51648364,Savings,51648364
77076944,user6944@test.net,Katie Doe,2022-06-07,active,77076944,4185.7,+1-307-953-2412,2024-10-25,Germany,Branch 3,77076944,48705,407 Main St,77076944,Credit,77076944
48902141,user2141@example.com,John Smith,2024-08-21,active,48902141,7130.98,+1-343-708-8022,2024-06-16,Germany,Branch 10,48902141,61480,658 Maple Drive,48902141,Checking,48902141
58982038,user2038@example.com,Emily Johnson,2025-01-14,inactive,58982038,102.58,+1-259-806-8187,2024-06-01,USA,Branch 18,58982038,17771,886 Broadway,58982038,Savings,58982038
86731962,user1962@example.com,John Doe,2024-03-24,inactive,86731962,2771.17,+1-569-517-7689,2024-04-04,Australia,Branch 4,86731962,55272,915 Maple Drive,86731962,Credit,86731962
51143402,user3402@test.net,Chris Davis,2024-11-27,active,51143402,1432.3,+1-440-104-9883,2024-05-10,Australia,Branch 16,51143402,13964,795 Main St,51143402,Credit,51143402
81712882,user2882@example.com,John Doe,2021-10-10,active,81712882,1284.82,+1-705-308-9071,2024-10-29,USA,Branch 8,81712882,62491,775 Broadway,81712882,Savings,81712882
80405164,user5164@test.net,John Davis,2024-12-01,inactive,80405164,9590.81,+1-598-328-3982,2024-09-03,Canada,Branch 18,80405164,13152,623 Maple Drive,80405164,Checking,80405164
28556622,user6622@sample.org,Chris Davis,2023-02-04,inactive,28556622,3771.84,+1-478-849-4112,2024-03-17,Australia,Branch 7,28556622,82511,537 Maple Drive,28556622,Checking,28556622
67842798,user2798@test.net,Katie Davis,2021-10-12,inactive,67842798,5275.61,+1-957-679-2520,2024-04-10,Canada,Branch 19,67842798,13736,933 Main St,67842798,Checking,67842798
46524584,user4584@test.net,Chris Johnson,2022-07-10,active,46524584,7340.88,+1-332-571-4783,2024-05-28,UK,Branch 16,46524584,16908,774 First Ave,46524584,Checking,46524584
18393938,user3938@sample.org,Alex Doe,2022-07-01,active,18393938,484.0,+1-203-560-6593,2024-07-02,Germany,Branch 4,18393938,56227,962 Broadway,18393938,Savings,18393938
61900871,user0871@test.net,Alex Doe,2022-03-02,inactive,61900871,2417.82,+1-943-229-2947,2024-05-15,UK,Branch 9,61900871,62299,250 First Ave,61900871,Savings,61900871
33186068,user6068@sample.org,Jane Davis,2021-03-22,inactive,33186068,8323.16,+1-382-460-7263,2024-08-13,Canada,Branch 3,33186068,15915,647 Broadway,33186068,Checking,33186068
72044237,user4237@test.net,Emily Doe,2023-12-11,inactive,72044237,8621.29,+1-445-272-3902,2024-05-20,Canada,Branch 1,72044237,18907,289 Maple Drive,72044237,Savings,72044237
09640531,user0531@example.com,Katie Davis,2023-02-05,inactive,09640531,3735.78,+1-750-410-3844,2024-11-03,UK,Branch 18,09640531,63455,379 Maple Drive,09640531,Savings,09640531
81138722,user8722@test.net,Chris Brown,2025-03-07,active,81138722,3754.87,+1-768-581-4354,2024-11-12,USA,Branch 20,81138722,15752,958 First Ave,81138722,Loan,81138722
95795163,user5163@test.net,Chris Davis,2025-02-10,active,95795163,7571.4,+1-764-279-9828,2024-05-20,UK,Branch 2,95795163,68826,217 Maple Drive,95795163,Credit,95795163
59970756,user0756@test.net,Jane Smith,2022-02-02,inactive,59970756,2957.75,+1-527-671-6677,2024-04-18,Australia,Branch 17,59970756,25780,393 First Ave,59970756,Checking,59970756
55484311,user4311@example.com,Jane Johnson,2024-11-14,inactive,55484311,1179.77,+1-450-782-4577,2024-09-20,Germany,Branch 12,55484311,79590,288 First Ave,55484311,Checking,55484311
33049996,user9996@example.com,Emily Davis,2020-06-30,active,33049996,2582.78,+1-657-179-3120,2024-08-17,UK,Branch 16,33049996,18466,359 Main St,33049996,Savings,33049996
12302626,user2626@example.com,Chris Smith,2022-07-31,inactive,12302626,3879.57,+1-502-280-9342,2024-06-14,Germany,Branch 6,12302626,90835,357 First Ave,12302626,Savings,12302626
01775997,user5997@sample.org,John Smith,2020-11-18,active,01775997,531.53,+1-702-924-4208,2024-06-15,Australia,Branch 9,01775997,35261,769 First Ave,01775997,Savings,01775997
06673092,user3092@sample.org,John Johnson,2024-01-24,active,06673092,4792.02,+1-933-988-1278,2024-11-01,Australia,Branch 5,06673092,90633,999 First Ave,06673092,Checking,06673092
23534941,user4941@test.net,Chris Davis,2021-02-26,inactive,23534941,7402.68,+1-311-743-2470,2024-11-25,Australia,Branch 3,23534941,36593,278 Main St,23534941,Savings,23534941
67334500,user4500@sample.org,Alex Doe,2023-03-04,inactive,67334500,5142.31,+1-902-167-9489,2025-02-20,Canada,Branch 9,67334500,69812,618 Maple Drive,67334500,Loan,67334500
06184458,user4458@test.net,John Davis,2022-08-19,active,06184458,728.23,+1-829-191-2033,2024-09-07,Australia,Branch 18,06184458,92952,766 Main St,06184458,Loan,06184458
25311387,user1387@sample.org,Jane Davis,2024-07-06,active,25311387,4407.09,+1-601-372-2267,2024-04-27,USA,Branch 4,25311387,12995,262 First Ave,25311387,Loan,25311387
02878201,user8201@sample.org,Katie Doe,2021-07-14,inactive,02878201,7091.96,+1-612-508-3118,2024-05-22,USA,Branch 19,02878201,78414,587 Main St,02878201,Checking,02878201
07848249,user8249@sample.org,Chris Smith,2024-07-29,active,07848249,590.39,+1-504-896-1029,2025-03-06,USA,Branch 12,07848249,59201,157 Maple Drive,07848249,Loan,07848249
93722409,user2409@example.com,Chris Johnson,2024-07-03,active,93722409,607.87,+1-691-345-9492,2024-03-22,Germany,Branch 14,93722409,59447,279 Maple Drive,93722409,Checking,93722409
96571673,user1673@sample.org,Chris Davis,2024-07-18,inactive,96571673,3712.31,+1-667-790-2740,2024-04-13,Australia,Branch 7,96571673,37260,725 Main St,96571673,Credit,96571673
57698808,user8808@example.com,Alex Doe,2020-07-05,inactive,57698808,1957.69,+1-232-300-3078,2024-05-08,UK,Branch 2,57698808,52051,650 Maple Drive,57698808,Loan,57698808
69408192,user8192@test.net,John Johnson,2024-02-20,inactive,69408192,9348.46,+1-591-865-8977,2024-09-07,Germany,Branch 10,69408192,44667,528 Maple Drive,69408192,Credit,69408192
16570910,user0910@example.com,Chris Johnson,2020-07-11,inactive,16570910,5817.62,+1-427-287-1577,2024-11-03,USA,Branch 16,16570910,16040,191 First Ave,16570910,Loan,16570910
34902078,user2078@sample.org,Chris Smith,2023-11-01,inactive,34902078,2880.38,+1-957-655-4943,2024-10-26,UK,Branch 4,34902078,75925,306 Main St,34902078,Credit,34902078
72387074,user7074@sample.org,Katie Johnson,2021-08-01,active,72387074,7050.72,+1-403-612-4052,2025-02-08,USA,Branch 7,72387074,44526,492 Main St,72387074,Credit,72387074
10018520,user8520@test.net,Katie Smith,2021-05-11,active,10018520,3755.54,+1-412-333-3518,2024-06-19,UK,Branch 19,10018520,74268,929 Main St,10018520,Loan,10018520
74294562,user4562@sample.org,Jane Davis,2022-02-17,active,74294562,1329.84,+1-257-901-2507,2025-01-10,USA,Branch 17,74294562,61090,910 Main St,74294562,Checking,74294562
78610095,user0095@sample.org,Chris Smith,2022-02-22,active,78610095,2379.95,+1-308-241-8081,2024-05-06,Canada,Branch 13,78610095,99072,549 Broadway,78610095,Loan,78610095
70729521,user9521@example.com,Jane Smith,2022-06-15,active,70729521,6431.05,+1-667-516-8887,2024-06-23,Germany,Branch 4,70729521,10131,965 Broadway,70729521,Savings,70729521
07659017,user9017@sample.org,Emily Johnson,2022-01-05,active,07659017,528.24,+1-697-186-8357,2025-02-26,Germany,Branch 11,07659017,83473,692 Main St,07659017,Loan,07659017
85580031,user0031@test.net,Chris Johnson,2020-03-23,inactive,85580031,2734.16,+1-232-522-8903,2024-10-31,Australia,Branch 17,85580031,36138,562 Main St,85580031,Savings,85580031
00386694,user6694@example.com,Jane Davis,2021-08-21,inactive,00386694,2091.03,+1-494-644-8183,2024-07-03,USA,Branch 4,00386694,69369,116 Main St,00386694,Credit,00386694
06590801,user0801@sample.org,Alex Brown,2021-06-26,inactive,06590801,2019.34,+1-406-156-8474,2024-08-18,Germany,Branch 5,06590801,84626,405 Main St,06590801,Loan,06590801
22345683,user5683@sample.org,Alex Johnson,2021-07-11,inactive,22345683,6830.8,+1-791-439-2221,2024-09-15,USA,Branch 5,22345683,27916,304 Maple Drive,22345683,Savings,22345683
02622450,user2450@example.com,Katie Brown,2024-09-10,active,02622450,8259.91,+1-608-456-1091,2024-03-25,USA,Branch 6,02622450,91120,418 First Ave,02622450,Checking,02622450
57266427,user6427@example.com,Emily Davis,2025-01-19,inactive,57266427,7161.51,+1-340-650-4533,2024-04-23,Australia,Branch 12,57266427,83996,619 Main St,57266427,Credit,57266427
74977751,user7751@test.net,John Doe,2021-11-03,inactive,74977751,6460.82,+1-532-982-8435,2024-07-30,Australia,Branch 8,74977751,99646,721 Main St,74977751,Savings,74977751
77759182,user9182@test.net,Alex Johnson,2022-07-01,active,77759182,9165.35,+1-611-486-1488,2025-02-01,USA,Branch 18,77759182,82122,334 Broadway,77759182,Savings,77759182
02725116,user5116@sample.org,Alex Brown,2020-05-28,active,02725116,593.34,+1-796-966-9957,2024-04-12,UK,Branch 10,02725116,84899,665 Main St,02725116,Credit,02725116
58107591,user7591@example.com,Chris Davis,2020-06-03,inactive,58107591,1683.16,+1-385-477-6813,2024-04-20,Germany,Branch 5,58107591,94303,813 Maple Drive,58107591,Checking,58107591
16976681,user6681@example.com,Chris Brown,2024-10-10,active,16976681,4149.92,+1-433-168-4740,2024-12-28,USA,Branch 15,16976681,68142,231 First Ave,16976681,Savings,16976681
43036992,user6992@test.net,Alex Johnson,2021-11-27,active,43036992,3730.79,+1-955-679-7370,2024-12-15,Germany,Branch 17,43036992,87470,795 Broadway,43036992,Checking,43036992
87828313,user8313@example.com,Katie Smith,2020-08-09,inactive,87828313,4186.34,+1-346-556-2815,2024-09-26,Germany,Branch 11,87828313,56866,509 First Ave,87828313,Checking,87828313
73771912,user1912@example.com,Chris Johnson,2023-04-20,active,73771912,2072.48,+1-890-865-6450,2024-08-31,Canada,Branch 10,73771912,24999,201 Main St,73771912,Credit,73771912
84015445,user5445@sample.org,Jane Brown,2023-12-25,inactive,84015445,1503.54,+1-332-610-6830,2025-01-28,UK,Branch 8,84015445,42190,942 First Ave,84015445,Savings,84015445
90695193,user5193@sample.org,Alex Smith,2021-11-07,inactive,90695193,5096.84,+1-821-127-9378,2024-10-26,Canada,Branch 10,90695193,54750,739 Main St,90695193,Checking,90695193
74764520,user4520@test.net,Emily Johnson,2022-01-03,inactive,74764520,9281.24,+1-590-417-5835,2024-03-18,UK,Branch 20,74764520,98728,502 Broadway,74764520,Loan,74764520
47624854,user4854@test.net,Emily Davis,2022-02-05,active,47624854,3925.77,+1-477-491-5680,2025-03-03,Australia,Branch 11,47624854,92165,413 First Ave,47624854,Credit,47624854
95009647,user9647@sample.org,Katie Smith,2023-04-26,inactive,95009647,443.1,+1-449-831-4507,2024-12-20,USA,Branch 10,95009647,72873,495 Broadway,95009647,Credit,95009647
27052503,user2503@test.net,John Doe,2023-10-05,active,27052503,7064.61,+1-667-518-3876,2024-07-15,Australia,Branch 9,27052503,48667,465 First Ave,27052503,Credit,27052503
65420458,user0458@sample.org,John Davis,2020-08-21,inactive,65420458,2918.14,+1-571-896-3941,2024-07-29,USA,Branch 19,65420458,85367,589 Main St,65420458,Credit,65420458
23155025,user5025@test.net,Alex Smith,2021-02-04,inactive,23155025,2458.5,+1-612-588-5273,2025-02-26,UK,Branch 9,23155025,71134,766 Main St,23155025,Savings,23155025
64603273,user3273@test.net,Chris Davis,2025-02-16,active,64603273,3249.34,+1-854-410-3238,2025-02-06,UK,Branch 16,64603273,90719,453 Main St,64603273,Savings,64603273
46840212,user0212@example.com,John Smith,2021-07-01,active,46840212,7240.92,+1-418-338-1234,2024-05-17,UK,Branch 15,46840212,50523,465 Maple Drive,46840212,Loan,46840212
59993397,user3397@sample.org,John Johnson,2024-07-26,active,59993397,8190.01,+1-932-911-9142,2024-12-17,UK,Branch 1,59993397,25973,152 Main St,59993397,Checking,59993397
93183570,user3570@sample.org,Chris Johnson,2023-01-06,active,93183570,5884.68,+1-337-872-8760,2024-03-11,Canada,Branch 5,93183570,53193,403 Maple Drive,93183570,Loan,93183570
58639869,user9869@example.com,Chris Davis,2023-12-24,active,58639869,3231.56,+1-484-813-5572,2025-01-23,Canada,Branch 17,58639869,56132,511 First Ave,58639869,Loan,58639869
07579022,user9022@sample.org,Emily Davis,2020-11-02,inactive,07579022,3111.68,+1-384-658-6850,2024-08-08,UK,Branch 6,07579022,12918,377 First Ave,07579022,Savings,07579022
00360830,user0830@sample.org,Jane Doe,2020-05-05,active,00360830,1251.84,+1-380-787-2293,2024-05-10,Germany,Branch 11,00360830,19920,218 Maple Drive,00360830,Savings,00360830
24528386,user8386@sample.org,Emily Smith,2021-09-25,inactive,24528386,9333.68,+1-452-909-1711,2024-08-30,Canada,Branch 8,24528386,95727,216 Main St,24528386,Savings,24528386
86980593,user0593@test.net,Katie Brown,2024-06-21,inactive,86980593,6385.01,+1-218-312-2976,2025-01-21,Canada,Branch 12,86980593,35511,477 Broadway,86980593,Savings,86980593
16301950,user1950@example.com,Katie Johnson,2022-02-01,active,16301950,279.48,+1-323-626-8181,2024-06-02,Australia,Branch 9,16301950,48879,734 First Ave,16301950,Checking,16301950
84236019,user6019@example.com,Jane Davis,2021-01-02,active,84236019,6627.05,+1-579-980-2807,2025-01-05,Australia,Branch 14,84236019,33083,712 Main St,84236019,Credit,84236019
